{
  "norad_id": 61567,
  "name": "QIANFAN-34",
  "history": [
    {
      "epoch": "2026-04-30T13:52:27.211008Z",
      "apogee_km": 888.1106337130013,
      "perigee_km": 882.6557300564054,
      "latitude_deg": -5.932983227763153e-06,
      "longitude_deg": -3.951309407999411,
      "height_km": 889.2769265987748,
      "semi_major_axis_km": 7263.520181884703,
      "eccentricity": 0.0003755,
      "inclination_deg": 88.9793,
      "raan_deg": 62.6849,
      "arg_perigee_deg": 251.5883,
      "mean_anomaly_deg": 108.4889,
      "mean_motion_rev_day": 14.02432736
    },
    {
      "epoch": "2026-05-02T10:23:46.055616Z",
      "apogee_km": 888.1683169811713,
      "perigee_km": 882.5870323051759,
      "latitude_deg": -2.7822863829995167e-05,
      "longitude_deg": 46.183218981988,
      "height_km": 889.7386939740109,
      "semi_major_axis_km": 7263.514674643173,
      "eccentricity": 0.0003842,
      "inclination_deg": 88.9795,
      "raan_deg": 62.4764,
      "arg_perigee_deg": 241.5649,
      "mean_anomaly_deg": 118.5144,
      "mean_motion_rev_day": 14.02434331
    },
    {
      "epoch": "2026-05-03T20:38:37.386816Z",
      "apogee_km": 888.2168561586468,
      "perigee_km": 882.5309798120479,
      "latitude_deg": 7.692150659056603e-06,
      "longitude_deg": -109.09756286447478,
      "height_km": 890.0794496313902,
      "semi_major_axis_km": 7263.510917985347,
      "eccentricity": 0.0003914,
      "inclination_deg": 88.9796,
      "raan_deg": 62.316,
      "arg_perigee_deg": 233.9396,
      "mean_anomaly_deg": 126.1422,
      "mean_motion_rev_day": 14.02435419
    },
    {
      "epoch": "2026-05-04T18:54:16.707168Z",
      "apogee_km": 888.2526861423203,
      "perigee_km": 882.4898186948512,
      "latitude_deg": -7.568336325604016e-05,
      "longitude_deg": -84.02992597179185,
      "height_km": 890.28837100722,
      "semi_major_axis_km": 7263.5082524185855,
      "eccentricity": 0.0003967,
      "inclination_deg": 88.9796,
      "raan_deg": 62.2117,
      "arg_perigee_deg": 229.1375,
      "mean_anomaly_deg": 130.9461,
      "mean_motion_rev_day": 14.02436191
    },
    {
      "epoch": "2026-05-05T18:52:40.531008Z",
      "apogee_km": 888.2930271582181,
      "perigee_km": 882.4430002201925,
      "latitude_deg": -1.7687253938118555e-05,
      "longitude_deg": -84.72594254171769,
      "height_km": 890.5107732422942,
      "semi_major_axis_km": 7263.505013689205,
      "eccentricity": 0.0004027,
      "inclination_deg": 88.9797,
      "raan_deg": 62.0995,
      "arg_perigee_deg": 223.8047,
      "mean_anomaly_deg": 136.2814,
      "mean_motion_rev_day": 14.02437129
    }
  ]
}